STRATOSAT-TK1-D (RS52SD)
1 57326U 23091BA  25182.17015719  .00019226  00000-0  59711-3 0  9993
2 57326  97.5533 244.0271 0009074 229.8154 130.2294 15.33371201108903
STRATOSAT-TK1-V (RS52SV)
1 57327U 23091BB  25182.19648645  .00240593  00000-0  15438-2 0  9996
2 57327  97.5432 252.6189 0008222 210.5631 149.5156 15.75524998109467
VERONIKA
1 58261U 23174F   25182.01695604  .00167673  00000-0  10371-2 0  9992
2 58261  97.4089 269.5779 0004040 260.9118  99.1690 15.76600647 92053
ENSO
1 58470U 23185J   25182.16834231  .00050346  00000-0  67257-3 0  9997
2 58470  97.3718 258.0118 0005085  10.8000 349.3364 15.57901653 88395
METEOR M2-4
1 59051U 24039A   25182.16981211  .00000008  00000-0  22853-4 0  9997
2 59051  98.6502 141.9074 0008197 103.6191 256.5900 14.22369948 69363
ZORKIY-2M 2
1 59064U 24039P   25182.16636108  .00040188  00000-0  53392-3 0  9997
2 59064  97.4265 155.6928 0005781 288.2451  71.8175 15.58092820 74972
PARS-1
1 59065U 24039Q   25182.19219302  .00007077  00000-0  19861-3 0  9997
2 59065  97.4406 150.4702 0009601 306.1553  53.8803 15.36838914 74584
SITRO-AIS-25
1 59066U 24039R   25182.16124960  .00005029  00000-0  42247-3 0  9999
2 59066  95.3767 354.6928 0157340 111.7624 250.0428 14.89319735 72408
SITRO-AIS-26
1 59067U 24039S   25182.18927427  .00004169  00000-0  35197-3 0  9991
2 59067  95.3769 354.6685 0157490 111.9136 249.8915 14.89173168 72402
SITRO-AIS-27
1 59068U 24039T   25182.17958352  .00004681  00000-0  39222-3 0  9994
2 59068  95.3770 354.7934 0156789 111.2544 250.5505 14.89499354 72412
SITRO-AIS-28
1 59071U 24039U   25182.16604893  .00005051  00000-0  42268-3 0  9991
2 59071  95.3770 354.8119 0156673 111.2157 250.5884 14.89539066 72419
SONATE-2
1 59112U 24043Q   25181.86172798  .00012850  00000-0  36409-3 0  9997
2 59112  97.5162 313.4779 0011457  44.8639 315.3529 15.36335598 73608
HORS-1
1 57188U 23091Y   25182.18629810  .00006060  00000-0  29094-3 0  9996
2 57188  97.5575 239.7456 0009316 235.5977 124.4377 15.19200734110891
HORS-2
1 57196U 23091AG  25182.18922455  .00008017  00000-0  35584-3 0  9991
2 57196  97.5589 241.0963 0008990 232.5329 127.5090 15.21802896110974
ZORKIY-2M 6
1 59774U 24092B   25182.19205202  .00006218  00000-0  28987-3 0  9992
2 59774  97.6163 299.9162 0009737 335.9026  24.1752 15.20209938 62062
ZORKIY-2M 4
1 59775U 24092C   25182.23864625  .00005870  00000-0  27030-3 0  9999
2 59775  97.6294 300.8587 0009834 339.2488  20.8346 15.20660900 62093
SITRO-AIS-53
1 59776U 24092D   25181.91363468  .00007948  00000-0  34241-3 0  9993
2 59776  97.6240 300.4164 0008362 311.7980  48.2540 15.22833569 62050
SITRO-AIS-54
1 59777U 24092E   25181.84744242  .00008089  00000-0  34881-3 0  9996
2 59777  97.6241 300.3439 0008638 312.4029  47.6475 15.22794932 62043
SITRO-AIS-56
1 59778U 24092F   25181.87498634  .00009087  00000-0  38777-3 0  9998
2 59778  97.6233 300.4376 0008804 312.9363  47.1134 15.23110520 62051
RASSVET 1-4
1 59779U 24092G   25182.19299558  .00000159  00000-0  76225-4 0  9991
2 59779  98.6388 297.3472 0012747 157.4224 202.7522 14.31623447 58672
RASSVET 1-5
1 59780U 24092H   25182.19268238  .00000297  00000-0  12817-3 0  9993
2 59780  98.6387 297.3436 0012832 157.3898 202.7853 14.31622265 58678
RASSVET 1-6
1 59781U 24092J   25182.19143299  .00000158  00000-0  75953-4 0  9990
2 59781  98.6387 297.3462 0012736 157.5954 202.5788 14.31622788 58671
SITRO-AIS-55
1 59809U 24092K   25181.87232073  .00008674  00000-0  37477-3 0  9993
2 59809  97.6235 300.2828 0008859 312.2263  47.8220 15.22702203 61540
MESAT-1
1 60209U 24125G   25182.13170218  .00015613  00000-0  43407-3 0  9999
2 60209  97.2774  33.5149 0019838  63.5245 296.8031 15.36738592 55260
ISTSAT-1
1 60238U 24128D   25182.09201260  .00004737  00000-0  33275-3 0  9998
2 60238  61.9916   1.7854 0052158  62.0090 298.6266 15.05491191 53492
IONOSFERA-M 01
1 61735U 24199A   25182.18738267  .00000017  00000-0  27578-4 0  9998
2 61735  98.7668  53.1001 0002193  80.0800 280.0625 14.22673396 77795
IONOSFERA-M 02
1 61736U 24199B   25182.22222094  .00000016  00000-0  26815-4 0  9992
2 61736  98.7666  53.0494 0000324 100.3849 259.7365 14.22674706 80921
SITRO-AIS-16
1 61737U 24199C   25182.15021356  .00002368  00000-0  22116-3 0  9994
2 61737  97.3568  38.3180 0007433 158.3165 201.8372 14.95027765 79323
SITRO-AIS-15
1 61738U 24199D   25182.20795278  .00002222  00000-0  20757-3 0  9990
2 61738  97.3567  38.3930 0007200 158.5228 201.6297 14.95067654 79336
SITRO-AIS-21
1 61739U 24199E   25182.19212229  .00001675  00000-0  16417-3 0  9998
2 61739  97.3567  37.8234 0013615 157.1593 203.0236 14.93409644 79331
SITRO-AIS-22
1 61740U 24199F   25182.18540552  .00001593  00000-0  15607-3 0  9991
2 61740  97.3569  37.8395 0013658 158.2584 201.9219 14.93485120 79489
SITRO-AIS-24
1 61741U 24199G   25182.18941418  .00001566  00000-0  15386-3 0  9992
2 61741  97.3570  37.8377 0013576 159.7026 200.4737 14.93408602 79454
SITRO-AIS-23
1 61742U 24199H   25182.17922944  .00001570  00000-0  15386-3 0  9990
2 61742  97.3570  37.8481 0013438 159.0903 201.0870 14.93512702 79334
SITRO-AIS-13
1 61743U 24199J   25182.18368027  .00001581  00000-0  14838-3 0  9991
2 61743  97.3566  38.4227 0006841 159.6810 200.4686 14.95260954 79494
CSTP-2.11
1 61744U 24199K   25182.19929760  .00012262  00000-0  37465-3 0  9999
2 61744  97.3539  50.9182 0013912 103.5296 256.7498 15.33931743 80274
POLYTECH UNIVERSE-5 (RS70S)
1 61745U 24199L   25182.20328084  .00014468  00000-0  41854-3 0  9991
2 61745  97.3513  51.1290 0011487 109.5887 250.6598 15.35648914 83439
COLIBRI-S (RS67S)
1 61746U 24199M   25182.21279662  .00009810  00000-0  30899-3 0  9992
2 61746  97.3541  50.7455 0013911 105.0375 255.2408 15.33023012 83408
POLYTECH UNIVERSE-4 (RS71S)
1 61747U 24199N   25182.18939661  .00009589  00000-0  30781-3 0  9994
2 61747  97.3541  50.6231 0014046 103.7390 256.5417 15.32423112 83398
SITRO-AIS-44
1 61748U 24199P   25182.19210315  .00015988  00000-0  44862-3 0  9999
2 61748  97.3504  51.2834 0011216 109.3704 250.8754 15.36585512 83445
VIZARD-ION (RS68S)
1 61749U 24199Q   25182.20669873  .00012795  00000-0  38191-3 0  9990
2 61749  97.3542  51.0608 0013375 103.3860 256.8875 15.34669612 83420
MTUSI-1
1 61750U 24199R   25182.15377019  .00013358  00000-0  40138-3 0  9994
2 61750  97.3512  50.7414 0013364 112.1924 248.0739 15.34447423 83401
VLADIVOSTOK-1
1 61751U 24199S   25182.18382224  .00006644  00000-0  23584-3 0  9998
2 61751  97.3526  49.9646 0013058 118.4873 241.7684 15.29301171 83363
SITRO-AIS-14
1 61752U 24199T   25182.20032066  .00002040  00000-0  19075-3 0  9994
2 61752  97.3566  38.4023 0007029 159.3801 200.7705 14.95114974 82639
HORS-3 (RS81S)
1 61753U 24199U   25182.18469159  .00013889  00000-0  41671-3 0  9999
2 61753  97.3508  50.8418 0012205 111.6306 248.6238 15.34500774 83415
HORS-4 (RS82S)
1 61754U 24199V   25182.17689032  .00014074  00000-0  41207-3 0  9995
2 61754  97.3505  50.9950 0012352 111.2201 249.0363 15.35268151 83424
SITRO-AIS-43
1 61755U 24199W   25182.18354404  .00016124  00000-0  45129-3 0  9994
2 61755  97.3505  51.2943 0011148 109.0029 251.2424 15.36663214 83441
SITRO-AIS-42
1 61756U 24199X   25182.17981342  .00015894  00000-0  44433-3 0  9991
2 61756  97.3506  51.3012 0011192 108.7751 251.4708 15.36702496 83441
HORIZON (RS59S)
1 61757U 24199Y   25182.18304018  .00021234  00000-0  55410-3 0  9994
2 61757  97.3526  51.6731 0012552 100.5307 259.7354 15.38758313 83464
SITRO-AIS-20
1 61758U 24199Z   25182.17234919  .00001681  00000-0  15713-3 0  9992
2 61758  97.3566  38.4303 0006608 160.2734 199.8745 14.95336866 82632
SITRO-AIS-19
1 61759U 24199AA  25182.17136061  .00001770  00000-0  16535-3 0  9994
2 61759  97.3566  38.4328 0006503 161.5862 198.5596 14.95320019 82633
SITRO-AIS-41
1 61760U 24199AB  25182.20629294  .00015797  00000-0  44609-3 0  9992
2 61760  97.3510  51.2743 0011252 108.7090 251.5377 15.36388919 83447
2024-199AC
1 61761U 24199AC  25182.16572082  .00013350  00000-0  39340-3 0  9999
2 61761  97.3504  51.0152 0011059 109.7494 250.4943 15.35093117 83424
ARCTICSAT-1 (RS74S)
1 61762U 24199AD  25182.17330903  .00019377  00000-0  50997-3 0  9991
2 61762  97.3525  51.6813 0012668  99.7553 260.5124 15.38512685 83465
SIT-HSE
1 61763U 24199AE  25182.20258184  .00017465  00000-0  50087-3 0  9992
2 61763  97.3512  51.2770 0010500 112.5043 247.7313 15.35891347 83448
SIT-2086
1 61764U 24199AF  25182.17571380  .00009314  00000-0  26470-3 0  9998
2 61764  97.3510  51.3114 0010347 105.1903 255.0486 15.36334030 80286
MORDOVIA-IOT (RS50S)
1 61765U 24199AG  25182.18028200  .00029849  00000-0  67672-3 0  9992
2 61765  97.3503  52.4079 0011709  96.7489 263.5091 15.42964998 80362
RUZAEVKA-390 (RS44S)
1 61766U 24199AH  25182.21338655  .00025082  00000-0  59784-3 0  9995
2 61766  97.3504  52.2085 0011853  96.8303 263.4293 15.41493940 80350
2024-199AJ (? AHMAT-2)
1 61767U 24199AJ  25182.16267432  .00034846  00000-0  73468-3 0  9997
2 61767  97.3492  52.7031 0011159  94.7275 265.5248 15.45094939 80382
HOD-HOD
1 61768U 24199AK  25182.21091912  .00010866  00000-0  33164-3 0  9997
2 61768  97.3517  50.9835 0009590 114.8656 245.3585 15.34047657 80277
KOSAR
1 61769U 24199AL  25182.20385582  .00012426  00000-0  36901-3 0  9992
2 61769  97.3512  51.1292 0009434 115.0118 245.2105 15.34881408 80284
SITRO-AIS-48
1 61771U 24199AN  25182.19914331  .00014060  00000-0  42590-3 0  9990
2 61771  97.3486  50.5962 0014176 120.1789 240.0860 15.34168042 80254
HYPERVIEW-1G (RS66S)
1 61772U 24199AP  25182.17633314  .00017450  00000-0  49462-3 0  9999
2 61772  97.3506  50.9966 0015258 113.4549 246.8301 15.36195711 80278
SITRO-AIS-47
1 61773U 24199AQ  25182.18925953  .00014445  00000-0  43525-3 0  9999
2 61773  97.3488  50.6142 0014219 121.0089 239.2553 15.34329640 80252
SITRO-AIS-46
1 61774U 24199AR  25182.16228834  .00014286  00000-0  42565-3 0  9998
2 61774  97.3483  50.6395 0014281 121.3439 238.9204 15.34687766 80254
